ONEWEB-0220             
1 48232U 21031Y   23331.88202166  .00000197  00000+0  49635-3 0  9997
2 48232  87.8962 115.2966 0002121  98.4198 261.7172 13.14498767125921
ONEWEB-0165             
1 48233U 21031Z   23331.91055091 -.00000526  00000+0 -14544-2 0  9993
2 48233  87.8952 115.2994 0001748 104.7554 255.3769 13.14502674125882
ONEWEB-0199             
1 48234U 21031AA  23331.89471213 -.00000769  00000+0 -21082-2 0  9993
2 48234  87.8952 115.2741 0001799 102.6656 257.4675 13.14507759125786
ONEWEB-0203             
1 48235U 21031AB  23331.88518058 -.00000145  00000+0 -42456-3 0  9999
2 48235  87.8952 115.2780 0001371 110.5155 249.6122 13.14500023125796
ONEWEB-0197             
1 48236U 21031AC  23331.78475445 -.00046320  00000+0 -12353+0 0  9995
2 48236  87.8954 115.2994 0001012  96.5253 263.5993 13.15641159125697
ONEWEB-0194             
1 48237U 21031AD  23331.91532143  .00000020  00000+0  20364-4 0  9991
2 48237  87.8952 115.2677 0001161  96.2317 263.8945 13.14502738125886
ONEWEB-0193             
1 48238U 21031AE  23331.93117070  .00001887  00000+0  50547-2 0  9998
2 48238  87.8952 115.2732 0001751  99.3250 260.8078 13.14496903125839
ONEWEB-0191             
1 48239U 21031AF  23331.86616346  .00000107  00000+0  25439-3 0  9998
2 48239  87.8965 115.2721 0001427 101.0625 259.0665 13.14504008125680
